{"type": "FeatureCollection", "features": [ {"type": "Feature", "properties": {"norad_id": 38779, "name": "GSAT-10 (GAGAN/PRN 128)", "group": "gnss", "lat": 0.0005229397469424721, "lon": 103.14246789031458, "alt_km": 35776.154088585514, "timestamp": "2025-12-18T19:29:52.787111+00:00", "meta": {"OBJECT_NAME": "GSAT-10 (GAGAN/PRN 128)", "OBJECT_ID": "2012-051B", "EPOCH": "2025-12-18T01:42:24.413760", "MEAN_MOTION": 1.00272578, "ECCENTRICITY": 0.00024776, "INCLINATION": 0.0781, "RA_OF_ASC_NODE": 265.611, "ARG_OF_PERICENTER": 219.0678, "MEAN_ANOMALY": 70.8845, "EPHEMERIS_TYPE": 0, "CLASSIFICATION_TYPE": "U", "NORAD_CAT_ID": 38779, "ELEMENT_SET_NO": 999, "REV_AT_EPOCH": 4828, "BSTAR": 0, "MEAN_MOTION_DOT": -1.4e-06, "MEAN_MOTION_DDOT": 0}, "tle": {"line1": "1 38779U 12051B   25352.07111590 -.00000140  00000+0  00000+0 0  9998", "line2": "2 38779   0.0781 265.6110 0002477 219.0678  70.8845  1.00272578 48282"}}, "geometry": {"type": "Point", "coordinates": [103.14246789031458, 0.0005229397469424721]}}, {"type": "Feature", "properties": {"norad_id": 38833, "name": "GPS BIIF-3  (PRN 24)", "group": "gnss", "lat": -12.626842746951978, "lon": 141.44705254087071, "alt_km": 20093.803805564083, "timestamp": "2025-12-18T19:29:52.787123+00:00", "meta": {"OBJECT_NAME": "GPS BIIF-3  (PRN 24)", "OBJECT_ID": "2012-053A", "EPOCH": "2025-12-17T20:05:06.382752", "MEAN_MOTION": 2.00565081, "ECCENTRICITY": 0.0176009, "INCLINATION": 53.5589, "RA_OF_ASC_NODE": 151.0299, "ARG_OF_PERICENTER": 64.0689, "MEAN_ANOMALY": 297.7246, "EPHEMERIS_TYPE": 0, "CLASSIFICATION_TYPE": "U", "NORAD_CAT_ID": 38833, "ELEMENT_SET_NO": 999, "REV_AT_EPOCH": 9580, "BSTAR": 0, "MEAN_MOTION_DOT": 6.4e-07, "MEAN_MOTION_DDOT": 0}, "tle": {"line1": "1 38833U 12053A   25351.83687943  .00000064  00000+0  00000+0 0  9998", "line2": "2 38833  53.5589 151.0299 0176009  64.0689 297.7246  2.00565081 95801"}}, "geometry": {"type": "Point", "coordinates": [141.44705254087071, -12.626842746951978]}}, {"type": "Feature", "properties": {"norad_id": 38857, "name": "GSAT0103 (GALILEO-FM3)", "group": "gnss", "lat": 2.8171513933123395, "lon": 108.41280033155033, "alt_km": 23222.80100241864, "timestamp": "2025-12-18T19:29:52.787134+00:00", "meta": {"OBJECT_NAME": "GSAT0103 (GALILEO-FM3)", "OBJECT_ID": "2012-055A", "EPOCH": "2025-12-17T15:12:30.323520", "MEAN_MOTION": 1.70473416, "ECCENTRICITY": 0.00028237, "INCLINATION": 55.6952, "RA_OF_ASC_NODE": 106.5322, "ARG_OF_PERICENTER": 269.0015, "MEAN_ANOMALY": 90.9249, "EPHEMERIS_TYPE": 0, "CLASSIFICATION_TYPE": "U", "NORAD_CAT_ID": 38857, "ELEMENT_SET_NO": 999, "REV_AT_EPOCH": 8191, "BSTAR": 0, "MEAN_MOTION_DOT": -8e-08, "MEAN_MOTION_DDOT": 0}, "tle": {"line1": "1 38857U 12055A   25351.63368430 -.00000008  00000+0  00000+0 0  9990", "line2": "2 38857  55.6952 106.5322 0002823 269.0015  90.9249  1.70473416 81917"}}, "geometry": {"type": "Point", "coordinates": [108.41280033155033, 2.8171513933123395]}}, {"type": "Feature", "properties": {"norad_id": 38953, "name": "BEIDOU-2 G6 (C02)", "group": "gnss", "lat": 1.930433910577493, "lon": 104.13000313587771, "alt_km": 35790.5581072205, "timestamp": "2025-12-18T19:29:52.787146+00:00", "meta": {"OBJECT_NAME": "BEIDOU-2 G6 (C02)", "OBJECT_ID": "2012-059A", "EPOCH": "2025-12-17T23:55:21.927648", "MEAN_MOTION": 1.00269401, "ECCENTRICITY": 0.00081896, "INCLINATION": 3.9621, "RA_OF_ASC_NODE": 75.4554, "ARG_OF_PERICENTER": 291.8259, "MEAN_ANOMALY": 162.3957, "EPHEMERIS_TYPE": 0, "CLASSIFICATION_TYPE": "U", "NORAD_CAT_ID": 38953, "ELEMENT_SET_NO": 999, "REV_AT_EPOCH": 4809, "BSTAR": 0, "MEAN_MOTION_DOT": -1.53e-06, "MEAN_MOTION_DDOT": 0}, "tle": {"line1": "1 38953U 12059A   25351.99678157 -.00000153  00000+0  00000+0 0  9991", "line2": "2 38953   3.9621  75.4554 0008189 291.8259 162.3957  1.00269401 48090"}}, "geometry": {"type": "Point", "coordinates": [104.13000313587771, 1.930433910577493]}}, {"type": "Feature", "properties": {"norad_id": 38977, "name": "LUCH 5B (SDCM/PRN 125)", "group": "gnss", "lat": -7.4595753239327145, "lon": 4.320636592301773, "alt_km": 35799.98774422466, "timestamp": "2025-12-18T19:29:52.787161+00:00", "meta": {"OBJECT_NAME": "LUCH 5B (SDCM/PRN 125)", "OBJECT_ID": "2012-061A", "EPOCH": "2025-12-18T00:28:21.485568", "MEAN_MOTION": 1.00272498, "ECCENTRICITY": 0.0006714, "INCLINATION": 10.0925, "RA_OF_ASC_NODE": 51.6556, "ARG_OF_PERICENTER": 194.5729, "MEAN_ANOMALY": 191.418, "EPHEMERIS_TYPE": 0, "CLASSIFICATION_TYPE": "U", "NORAD_CAT_ID": 38977, "ELEMENT_SET_NO": 999, "REV_AT_EPOCH": 4779, "BSTAR": 0, "MEAN_MOTION_DOT": -1.22e-06, "MEAN_MOTION_DDOT": 0}, "tle": {"line1": "1 38977U 12061A   25352.01969312 -.00000122  00000+0  00000+0 0  9996", "line2": "2 38977  10.0925  51.6556 0006714 194.5729 191.4180  1.00272498 47790"}}, "geometry": {"type": "Point", "coordinates": [4.320636592301773, -7.4595753239327145]}}, {"type": "Feature", "properties": {"norad_id": 39155, "name": "COSMOS 2485 (747)", "group": "gnss", "lat": 61.24277344585914, "lon": 136.447196272726, "alt_km": 19180.48131451638, "timestamp": "2025-12-18T19:29:52.787173+00:00", "meta": {"OBJECT_NAME": "COSMOS 2485 (747)", "OBJECT_ID": "2013-019A", "EPOCH": "2025-12-18T05:53:18.557952", "MEAN_MOTION": 2.13103159, "ECCENTRICITY": 0.0024769, "INCLINATION": 65.3166, "RA_OF_ASC_NODE": 79.6819, "ARG_OF_PERICENTER": 229.9573, "MEAN_ANOMALY": 129.8462, "EPHEMERIS_TYPE": 0, "CLASSIFICATION_TYPE": "U", "NORAD_CAT_ID": 39155, "ELEMENT_SET_NO": 999, "REV_AT_EPOCH": 9842, "BSTAR": 0, "MEAN_MOTION_DOT": -4e-07, "MEAN_MOTION_DDOT": 0}, "tle": {"line1": "1 39155U 13019A   25352.24535368 -.00000040  00000+0  00000+0 0  9993", "line2": "2 39155  65.3166  79.6819 0024769 229.9573 129.8462  2.13103159 98427"}}, "geometry": {"type": "Point", "coordinates": [136.447196272726, 61.24277344585914]}}, {"type": "Feature", "properties": {"norad_id": 39166, "name": "GPS BIIF-4  (PRN 27)", "group": "gnss", "lat": 54.32377055424005, "lon": -2.8449599242349306, "alt_km": 19878.827193936577, "timestamp": "2025-12-18T19:29:52.787184+00:00", "meta": {"OBJECT_NAME": "GPS BIIF-4  (PRN 27)", "OBJECT_ID": "2013-023A", "EPOCH": "2025-12-15T04:59:33.811872", "MEAN_MOTION": 2.00564736, "ECCENTRICITY": 0.01378529, "INCLINATION": 54.65, "RA_OF_ASC_NODE": 276.4679, "ARG_OF_PERICENTER": 48.4851, "MEAN_ANOMALY": 312.7012, "EPHEMERIS_TYPE": 0, "CLASSIFICATION_TYPE": "U", "NORAD_CAT_ID": 39166, "ELEMENT_SET_NO": 999, "REV_AT_EPOCH": 9219, "BSTAR": 0, "MEAN_MOTION_DOT": -6.8e-07, "MEAN_MOTION_DDOT": 0}, "tle": {"line1": "1 39166U 13023A   25349.20803023 -.00000068  00000+0  00000+0 0  9998", "line2": "2 39166  54.6500 276.4679 0137852  48.4851 312.7012  2.00564736 92194"}}, "geometry": {"type": "Point", "coordinates": [-2.8449599242349306, 54.32377055424005]}}, {"type": "Feature", "properties": {"norad_id": 39199, "name": "IRNSS-1A", "group": "gnss", "lat": 4.976681647180057, "lon": 73.52688957939574, "alt_km": 35880.722921311164, "timestamp": "2025-12-18T19:29:52.787195+00:00", "meta": {"OBJECT_NAME": "IRNSS-1A", "OBJECT_ID": "2013-034A", "EPOCH": "2025-12-17T18:43:36.515136", "MEAN_MOTION": 1.00272181, "ECCENTRICITY": 0.00240353, "INCLINATION": 35.3134, "RA_OF_ASC_NODE": 66.4811, "ARG_OF_PERICENTER": 209.5265, "MEAN_ANOMALY": 146.4041, "EPHEMERIS_TYPE": 0, "CLASSIFICATION_TYPE": "U", "NORAD_CAT_ID": 39199, "ELEMENT_SET_NO": 999, "REV_AT_EPOCH": 4554, "BSTAR": 0, "MEAN_MOTION_DOT": 6.4e-07, "MEAN_MOTION_DDOT": 0}, "tle": {"line1": "1 39199U 13034A   25351.78028374  .00000064  00000+0  00000+0 0  9995", "line2": "2 39199  35.3134  66.4811 0024035 209.5265 146.4041  1.00272181 45541"}}, "geometry": {"type": "Point", "coordinates": [73.52688957939574, 4.976681647180057]}}, {"type": "Feature", "properties": {"norad_id": 39533, "name": "GPS BIIF-5  (PRN 30)", "group": "gnss", "lat": 53.40748658913042, "lon": -120.15612977861181, "alt_km": 20337.204971638843, "timestamp": "2025-12-18T19:29:52.787207+00:00", "meta": {"OBJECT_NAME": "GPS BIIF-5  (PRN 30)", "OBJECT_ID": "2014-008A", "EPOCH": "2025-12-17T04:42:21.782016", "MEAN_MOTION": 2.00574699, "ECCENTRICITY": 0.00793343, "INCLINATION": 53.632, "RA_OF_ASC_NODE": 156.7429, "ARG_OF_PERICENTER": 226.5757, "MEAN_ANOMALY": 132.7662, "EPHEMERIS_TYPE": 0, "CLASSIFICATION_TYPE": "U", "NORAD_CAT_ID": 39533, "ELEMENT_SET_NO": 999, "REV_AT_EPOCH": 8603, "BSTAR": 0, "MEAN_MOTION_DOT": 7.8e-07, "MEAN_MOTION_DDOT": 0}, "tle": {"line1": "1 39533U 14008A   25351.19608544  .00000078  00000+0  00000+0 0  9992", "line2": "2 39533  53.6320 156.7429 0079334 226.5757 132.7662  2.00574699 86034"}}, "geometry": {"type": "Point", "coordinates": [-120.15612977861181, 53.40748658913042]}}, {"type": "Feature", "properties": {"norad_id": 39617, "name": "ASTRA 5B (EGNOS/PRN 123)", "group": "gnss", "lat": 0.05574436041013043, "lon": 43.66187879814321, "alt_km": 35799.81827026208, "timestamp": "2025-12-18T19:29:52.787218+00:00", "meta": {"OBJECT_NAME": "ASTRA 5B (EGNOS/PRN 123)", "OBJECT_ID": "2014-011B", "EPOCH": "2025-12-18T04:38:38.449248", "MEAN_MOTION": 1.0027004, "ECCENTRICITY": 0.00038578, "INCLINATION": 0.0433, "RA_OF_ASC_NODE": 352.7745, "ARG_OF_PERICENTER": 266.1928, "MEAN_ANOMALY": 281.2642, "EPHEMERIS_TYPE": 0, "CLASSIFICATION_TYPE": "U", "NORAD_CAT_ID": 39617, "ELEMENT_SET_NO": 999, "REV_AT_EPOCH": 4285, "BSTAR": 0, "MEAN_MOTION_DOT": 1.62e-06, "MEAN_MOTION_DDOT": 0}, "tle": {"line1": "1 39617U 14011B   25352.19350057  .00000162  00000+0  00000+0 0  9997", "line2": "2 39617   0.0433 352.7745 0003857 266.1928 281.2642  1.00270040 42856"}}, "geometry": {"type": "Point", "coordinates": [43.66187879814321, 0.05574436041013043]}}]}